t_id,s_id,latitude,longitude,Availability,street,city,zipcode,model,x,y
S1-T1,S1,48.855667,2.354089,0.0,4 PLACE SAINT GERVAIS,Paris,75004,"T3, E/F, CHAdeMO, Combo, T2",7263.558638461773,4527.050439999902
S1-T2,S1,48.855667,2.354089,1.0,4 PLACE SAINT GERVAIS,Paris,75004,E/F,7263.558638461773,4527.050439999902
S1-T3,S1,48.855667,2.354089,1.0,4 PLACE SAINT GERVAIS,Paris,75004,"E/F, CHAdeMO, T2, T3, Combo",7263.558638461773,4527.050439999902
S10-T1,S10,48.86424,2.397724,0.0,13 AVENUE DU PÈRE LACHAISE,Paris,75020,"Combo, T3, T2, CHAdeMO, E/F",10462.151632530533,5481.396800000513
S10-T2,S10,48.86424,2.397724,0.0,13 AVENUE DU PÈRE LACHAISE,Paris,75020,E/F,10462.151632530533,5481.396800000513
S10-T3,S10,48.86424,2.397724,0.0,13 AVENUE DU PÈRE LACHAISE,Paris,75020,"CHAdeMO, E/F, Combo, T3, T2",10462.151632530533,5481.396800000513
S11-T1,S11,48.861016,2.28308,0.0,24 AVENUE PAUL DOUMER,Paris,75016,"T2, CHAdeMO, T3, E/F, Combo",2058.358915399357,5122.501120000179
S11-T2,S11,48.861016,2.28308,1.0,24 AVENUE PAUL DOUMER,Paris,75016,E/F,2058.358915399357,5122.501120000179
S11-T3,S11,48.861016,2.28308,0.0,24 AVENUE PAUL DOUMER,Paris,75016,"T2, E/F, CHAdeMO, T3, Combo",2058.358915399357,5122.501120000179
S12-T1,S12,48.824388,2.336857,1.0,46 AVENUE REILLE,Paris,75014,"Combo, T2, CHAdeMO, T3, E/F",6000.394791233802,1045.072160000143
S12-T2,S12,48.824388,2.336857,0.0,46 AVENUE REILLE,Paris,75014,E/F,6000.394791233802,1045.072160000143
S12-T3,S12,48.824388,2.336857,1.0,46 AVENUE REILLE,Paris,75014,"Combo, T2, E/F, CHAdeMO, T3",6000.394791233802,1045.072160000143
S13-T1,S13,48.88264,2.335728,1.0,31 BOULEVARD DE CLICHY,Paris,75009,"T2, Combo, CHAdeMO, T3, E/F",5917.6352750127835,7529.684800000486
S13-T2,S13,48.88264,2.335728,0.0,31 BOULEVARD DE CLICHY,Paris,75009,E/F,5917.6352750127835,7529.684800000486
S13-T3,S13,48.88264,2.335728,0.0,31 BOULEVARD DE CLICHY,Paris,75009,"T2, T3, Combo, CHAdeMO, E/F",5917.6352750127835,7529.684800000486
S14-T1,S14,48.840977,2.317465,0.0,43 BOULEVARD DE VAUGIRARD,Paris,75015,"E/F, CHAdeMO, T3, Combo, T2",4578.895642821238,2891.75964000051
S14-T2,S14,48.840977,2.317465,0.0,43 BOULEVARD DE VAUGIRARD,Paris,75015,E/F,4578.895642821238,2891.75964000051
S14-T3,S14,48.840977,2.317465,0.0,43 BOULEVARD DE VAUGIRARD,Paris,75015,"T3, E/F, T2, CHAdeMO, Combo",4578.895642821238,2891.75964000051
S15-T1,S15,48.846295,2.3748774,1.0,2 Rue Abel,Paris,75012,"E/F, T3, Combo, CHAdeMO, T2",8787.418626954915,3483.759400000008
S15-T2,S15,48.846295,2.3748774,0.0,2 Rue Abel,Paris,75012,E/F,8787.418626954915,3483.759400000008
S15-T3,S15,48.846295,2.3748774,0.0,2 Rue Abel,Paris,75012,"E/F, Combo, CHAdeMO, T2, T3",8787.418626954915,3483.759400000008
S16-T1,S16,48.889731,2.33891,0.0,103 RUE CAULAINCOURT,Paris,75018,"T3, T2, Combo, CHAdeMO, E/F",6150.886630739291,8319.054919999986
S16-T2,S16,48.889731,2.33891,1.0,103 RUE CAULAINCOURT,Paris,75018,E/F,6150.886630739291,8319.054919999986
S16-T3,S16,48.889731,2.33891,0.0,103 RUE CAULAINCOURT,Paris,75018,"T2, CHAdeMO, E/F, T3, Combo",6150.886630739291,8319.054919999986
S17-T1,S17,48.8452653,2.4112383,0.0,4 Rue Changarnier,Paris,75012,"T3, T2, Combo, CHAdeMO, E/F",11452.795503270596,3369.1331960003886
S17-T2,S17,48.8452653,2.4112383,0.0,4 Rue Changarnier,Paris,75012,E/F,11452.795503270596,3369.1331960003886
S17-T3,S17,48.8452653,2.4112383,0.0,4 Rue Changarnier,Paris,75012,"CHAdeMO, T3, Combo, E/F, T2",11452.795503270596,3369.1331960003886
S18-T1,S18,48.846761,2.268339,1.0,2 RUE CHARDON LAGACHE,Paris,75016,"E/F, T3, CHAdeMO, T2, Combo",977.7937881948847,3535.634520000338
S18-T2,S18,48.846761,2.268339,0.0,2 RUE CHARDON LAGACHE,Paris,75016,E/F,977.7937881948847,3535.634520000338
S18-T3,S18,48.846761,2.268339,0.0,2 RUE CHARDON LAGACHE,Paris,75016,"Combo, T2, E/F, T3, CHAdeMO",977.7937881948847,3535.634520000338
S19-T1,S19,48.877409,2.392178,0.0,27 RUE DE CRIMEE,Paris,75019,"T2, CHAdeMO, T3, E/F, Combo",10055.611086063107,6947.369880000265
S19-T2,S19,48.877409,2.392178,0.0,27 RUE DE CRIMEE,Paris,75019,E/F,10055.611086063107,6947.369880000265
S19-T3,S19,48.877409,2.392178,0.0,27 RUE DE CRIMEE,Paris,75019,"E/F, T2, Combo, T3, CHAdeMO",10055.611086063107,6947.369880000265
S2-T1,S2,48.878897,2.355064,0.0,137 RUE LA FAYETTE,Paris,75010,"CHAdeMO, T3, Combo, E/F, T2",7335.029434135357,7113.01404000048
S2-T2,S2,48.878897,2.355064,0.0,137 RUE LA FAYETTE,Paris,75010,E/F,7335.029434135357,7113.01404000048
S2-T3,S2,48.878897,2.355064,0.0,137 RUE LA FAYETTE,Paris,75010,"CHAdeMO, Combo, E/F, T3, T2",7335.029434135357,7113.01404000048
S20-T1,S20,48.882718,2.319768,0.0,81 RUE DE ROME,Paris,75017,"T2, CHAdeMO, E/F, Combo, T3",4747.713327371259,7538.36775999992
S20-T2,S20,48.882718,2.319768,0.0,81 RUE DE ROME,Paris,75017,E/F,4747.713327371259,7538.36775999992
S20-T3,S20,48.882718,2.319768,0.0,81 RUE DE ROME,Paris,75017,"T2, CHAdeMO, Combo, E/F, T3",4747.713327371259,7538.36775999992
S21-T1,S21,48.8260387,2.3581456,0.0,145 Rue de Tolbiac,Paris,75013,"T3, T2, E/F, CHAdeMO, Combo",7560.921130491989,1228.8280840000323
S21-T2,S21,48.8260387,2.3581456,0.0,145 Rue de Tolbiac,Paris,75013,E/F,7560.921130491989,1228.8280840000323
S21-T3,S21,48.8260387,2.3581456,0.0,145 Rue de Tolbiac,Paris,75013,"T3, Combo, T2, E/F, CHAdeMO",7560.921130491989,1228.8280840000323
S22-T1,S22,48.841529,2.298576,0.0,170 RUE LECOURBE,Paris,75015,"T2, Combo, CHAdeMO, T3, E/F",3194.2680946382707,2953.208280000398
S22-T2,S22,48.841529,2.298576,0.0,170 RUE LECOURBE,Paris,75015,E/F,3194.2680946382707,2953.208280000398
S22-T3,S22,48.841529,2.298576,0.0,170 RUE LECOURBE,Paris,75015,"E/F, T2, T3, Combo, CHAdeMO",3194.2680946382707,2953.208280000398
S23-T1,S23,48.865358,2.3779388,0.0,94 Rue Saint-Maur,Paris,75011,"E/F, CHAdeMO, T3, Combo, T2",9011.829595031966,5605.85256000031
S23-T2,S23,48.865358,2.3779388,0.0,94 Rue Saint-Maur,Paris,75011,E/F,9011.829595031966,5605.85256000031
S23-T3,S23,48.865358,2.3779388,1.0,94 Rue Saint-Maur,Paris,75011,"T3, E/F, CHAdeMO, T2, Combo",9011.829595031966,5605.85256000031
S24-T1,S24,48.841742,2.375639,1.0,20 RUE VILLIOT,Paris,75012,"CHAdeMO, E/F, T2, T3, Combo",8843.246481298522,2976.9194400006477
S24-T2,S24,48.841742,2.375639,0.0,20 RUE VILLIOT,Paris,75012,E/F,8843.246481298522,2976.9194400006477
S24-T3,S24,48.841742,2.375639,0.0,20 RUE VILLIOT,Paris,75012,"CHAdeMO, Combo, T2, T3, E/F",8843.246481298522,2976.9194400006477
S25-T1,S25,48.89311,2.34066,0.0,110 RUE ORDENER,Paris,75018,"Combo, T2, T3, E/F, CHAdeMO",6279.167546050886,8695.20520000026
S25-T2,S25,48.89311,2.34066,1.0,110 RUE ORDENER,Paris,75018,E/F,6279.167546050886,8695.20520000026
S25-T3,S25,48.89311,2.34066,0.0,110 RUE ORDENER,Paris,75018,"Combo, CHAdeMO, T3, E/F, T2",6279.167546050886,8695.20520000026
S26-T1,S26,48.865311,2.343436,1.0,44 RUE ETIENNE MARCEL,Paris,75001,"CHAdeMO, E/F, Combo, T2, T3",6482.657729425116,5600.620520000073
S26-T2,S26,48.865311,2.343436,1.0,44 RUE ETIENNE MARCEL,Paris,75001,E/F,6482.657729425116,5600.620520000073
S26-T3,S26,48.865311,2.343436,1.0,44 RUE ETIENNE MARCEL,Paris,75001,"E/F, Combo, CHAdeMO, T2, T3",6482.657729425116,5600.620520000073
S27-T1,S27,48.86003,2.34046,0.0,1 RUE DE L'AMIRAL DE COLIGNY,Paris,75001,"T2, CHAdeMO, E/F, Combo, T3",6264.50687001528,5012.739600000459
S27-T2,S27,48.86003,2.34046,0.0,1 RUE DE L'AMIRAL DE COLIGNY,Paris,75001,E/F,6264.50687001528,5012.739600000459
S27-T3,S27,48.86003,2.34046,0.0,1 RUE DE L'AMIRAL DE COLIGNY,Paris,75001,"Combo, T2, T3, CHAdeMO, E/F",6264.50687001528,5012.739600000459
S28-T1,S28,48.864719,2.359043,1.0,5 RUE DE REAUMUR,Paris,75003,"CHAdeMO, T2, Combo, E/F, T3",7626.703583863757,5534.719080000354
S28-T2,S28,48.864719,2.359043,0.0,5 RUE DE REAUMUR,Paris,75003,E/F,7626.703583863757,5534.719080000354
S28-T3,S28,48.864719,2.359043,0.0,5 RUE DE REAUMUR,Paris,75003,"E/F, T3, CHAdeMO, Combo, T2",7626.703583863757,5534.719080000354
S29-T1,S29,48.854057,2.34556,1.0,4 QUAI DU MARCHE NEUF,Paris,75004,"CHAdeMO, T3, E/F, Combo, T2",6638.354108923257,4347.825239999964
S29-T2,S29,48.854057,2.34556,0.0,4 QUAI DU MARCHE NEUF,Paris,75004,E/F,6638.354108923257,4347.825239999964
S29-T3,S29,48.854057,2.34556,1.0,4 QUAI DU MARCHE NEUF,Paris,75004,"E/F, T3, T2, CHAdeMO, Combo",6638.354108923257,4347.825239999964
S3-T1,S3,48.876162,2.286403,1.0,77 AVENUE DE LA GRANDE ARMEE,Paris,75016,"Combo, E/F, CHAdeMO, T2, T3",2301.94604773098,6808.553840000339
S3-T2,S3,48.876162,2.286403,0.0,77 AVENUE DE LA GRANDE ARMEE,Paris,75016,E/F,2301.94604773098,6808.553840000339
S3-T3,S3,48.876162,2.286403,0.0,77 AVENUE DE LA GRANDE ARMEE,Paris,75016,"T3, Combo, E/F, CHAdeMO, T2",2301.94604773098,6808.553840000339
S30-T1,S30,48.845715,2.345032,1.0,17 PLACE DU PANTHEON,Paris,75005,"Combo, CHAdeMO, T2, T3, E/F",6599.649924189245,3419.1938000000796
S30-T2,S30,48.845715,2.345032,1.0,17 PLACE DU PANTHEON,Paris,75005,E/F,6599.649924189245,3419.1938000000796
S30-T3,S30,48.845715,2.345032,0.0,17 PLACE DU PANTHEON,Paris,75005,"T2, E/F, T3, Combo, CHAdeMO",6599.649924189245,3419.1938000000796
S31-T1,S31,48.85104,2.345493,1.0,32 RUE SAINT JACQUES,Paris,75005,"E/F, T3, Combo, CHAdeMO, T2",6633.442782451325,4011.972799999983
S31-T2,S31,48.85104,2.345493,0.0,32 RUE SAINT JACQUES,Paris,75005,E/F,6633.442782451325,4011.972799999983
S31-T3,S31,48.85104,2.345493,0.0,32 RUE SAINT JACQUES,Paris,75005,"CHAdeMO, E/F, T3, Combo, T2",6633.442782451325,4011.972799999983
S32-T1,S32,48.84477,2.35242,0.0,55 RUE MONGE,Paris,75005,"T2, Combo, CHAdeMO, T3, E/F",7141.215296944614,3313.9963999999095
S32-T2,S32,48.84477,2.35242,0.0,55 RUE MONGE,Paris,75005,E/F,7141.215296944614,3313.9963999999095
S32-T3,S32,48.84477,2.35242,0.0,55 RUE MONGE,Paris,75005,"CHAdeMO, T3, T2, Combo, E/F",7141.215296944614,3313.9963999999095
S33-T1,S33,48.8524588,2.3414834,0.0,7 RUE DANTON,Paris,75006,"E/F, CHAdeMO, T2, T3, Combo",6339.52554928947,4169.913616000347
S33-T2,S33,48.8524588,2.3414834,1.0,7 RUE DANTON,Paris,75006,E/F,6339.52554928947,4169.913616000347
S33-T3,S33,48.8524588,2.3414834,1.0,7 RUE DANTON,Paris,75006,"T3, Combo, CHAdeMO, T2, E/F",6339.52554928947,4169.913616000347
S34-T1,S34,48.8521255,2.3313459,1.0,66 RUE DE RENNES,Paris,75006,"E/F, Combo, T2, CHAdeMO, T3",5596.412532734601,4132.810660000214
S34-T2,S34,48.8521255,2.3313459,0.0,66 RUE DE RENNES,Paris,75006,E/F,5596.412532734601,4132.810660000214
S34-T3,S34,48.8521255,2.3313459,0.0,66 RUE DE RENNES,Paris,75006,"E/F, Combo, CHAdeMO, T3, T2",5596.412532734601,4132.810660000214
S35-T1,S35,48.849911,2.307126,1.0,10 AV DE SAXE,Paris,75007,"E/F, T3, Combo, T2, CHAdeMO",3821.01199516048,3886.292520000114
S35-T2,S35,48.849911,2.307126,0.0,10 AV DE SAXE,Paris,75007,E/F,3821.01199516048,3886.292520000114
S35-T3,S35,48.849911,2.307126,0.0,10 AV DE SAXE,Paris,75007,"E/F, T3, Combo, T2, CHAdeMO",3821.01199516048,3886.292520000114
S36-T1,S36,48.857552,2.30437,1.0,47 AV BOSQUET,Paris,75007,"T2, T3, E/F, Combo, CHAdeMO",3618.987879389821,4736.888640000066
S36-T2,S36,48.857552,2.30437,0.0,47 AV BOSQUET,Paris,75007,E/F,3618.987879389821,4736.888640000066
S36-T3,S36,48.857552,2.30437,1.0,47 AV BOSQUET,Paris,75007,"T2, T3, E/F, Combo, CHAdeMO",3618.987879389821,4736.888640000066
S37-T1,S37,48.857124,2.327753,0.0,35 RUE DU BAC,Paris,75007,"T3, E/F, CHAdeMO, T2, Combo",5333.0408180929135,4689.243680000129
S37-T2,S37,48.857124,2.327753,0.0,35 RUE DU BAC,Paris,75007,E/F,5333.0408180929135,4689.243680000129
S37-T3,S37,48.857124,2.327753,1.0,35 RUE DU BAC,Paris,75007,"T3, E/F, CHAdeMO, T2, Combo",5333.0408180929135,4689.243680000129
S38-T1,S38,48.847931,2.309952,1.0,2 RUE PERIGNON,Paris,75007,"E/F, Combo, T3, T2, CHAdeMO",4028.1673475436355,3665.8789200005485
S38-T2,S38,48.847931,2.309952,0.0,2 RUE PERIGNON,Paris,75007,E/F,4028.1673475436355,3665.8789200005485
S38-T3,S38,48.847931,2.309952,1.0,2 RUE PERIGNON,Paris,75007,"E/F, CHAdeMO, T3, T2, Combo",4028.1673475436355,3665.8789200005485
S39-T1,S39,48.852665,2.31368,0.0,9 AVENUE DE VILLARS,Paris,75007,"T3, E/F, CHAdeMO, T2, Combo",4301.442348847379,4192.867800000451
S39-T2,S39,48.852665,2.31368,0.0,9 AVENUE DE VILLARS,Paris,75007,E/F,4301.442348847379,4192.867800000451
S39-T3,S39,48.852665,2.31368,0.0,9 AVENUE DE VILLARS,Paris,75007,"T3, T2, E/F, Combo, CHAdeMO",4301.442348847379,4192.867800000451
S4-T1,S4,48.871465,2.289894,0.0,45 AVENUE VICTOR HUGO,Paris,75016,"CHAdeMO, T2, T3, E/F, Combo",2557.8481479325096,6285.68380000032
S4-T2,S4,48.871465,2.289894,0.0,45 AVENUE VICTOR HUGO,Paris,75016,E/F,2557.8481479325096,6285.68380000032
S4-T3,S4,48.871465,2.289894,1.0,45 AVENUE VICTOR HUGO,Paris,75016,"E/F, CHAdeMO, T3, Combo, T2",2557.8481479325096,6285.68380000032
S41-T1,S41,48.86937,2.303269,0.0,55 RUE PIERRE CHARRON,Paris,75008,"T2, E/F, CHAdeMO, T3, Combo",3538.2808578137815,6052.4684000006455
S41-T2,S41,48.86937,2.303269,0.0,55 RUE PIERRE CHARRON,Paris,75008,E/F,3538.2808578137815,6052.4684000006455
S41-T3,S41,48.86937,2.303269,0.0,55 RUE PIERRE CHARRON,Paris,75008,"CHAdeMO, E/F, Combo, T2, T3",3538.2808578137815,6052.4684000006455
S42-T1,S42,48.875854,2.309542,0.0,2 RUE LOUIS MURAT,Paris,75008,"Combo, E/F, T3, CHAdeMO, T2",3998.112961670638,6774.267279999897
S42-T2,S42,48.875854,2.309542,0.0,2 RUE LOUIS MURAT,Paris,75008,E/F,3998.112961670638,6774.267279999897
S42-T3,S42,48.875854,2.309542,0.0,2 RUE LOUIS MURAT,Paris,75008,"Combo, T3, E/F, T2, CHAdeMO",3998.112961670638,6774.267279999897
S45-T1,S45,48.858952,2.379874,0.0,4 AVENUE PARMENTIER,Paris,75011,"T2, Combo, E/F, T3, CHAdeMO",9153.686296352518,4892.736640000493
S45-T2,S45,48.858952,2.379874,0.0,4 AVENUE PARMENTIER,Paris,75011,E/F,9153.686296352518,4892.736640000493
S45-T3,S45,48.858952,2.379874,0.0,4 AVENUE PARMENTIER,Paris,75011,"T2, Combo, CHAdeMO, E/F, T3",9153.686296352518,4892.736640000493
S46-T1,S46,48.847485,2.401736,0.0,66 COURS DE VINCENNES,Paris,75012,"Combo, CHAdeMO, T2, E/F, T3",10756.24479380482,3616.2302000001346
S46-T2,S46,48.847485,2.401736,0.0,66 COURS DE VINCENNES,Paris,75012,E/F,10756.24479380482,3616.2302000001346
S46-T3,S46,48.847485,2.401736,0.0,66 COURS DE VINCENNES,Paris,75012,"Combo, T2, E/F, T3, CHAdeMO",10756.24479380482,3616.2302000001346
S47-T1,S47,48.820007,2.365661,0.0,107 BOULEVARD MASSENA,Paris,75013,"CHAdeMO, Combo, T3, E/F, T2",8111.825353882024,557.3792399998993
S47-T2,S47,48.820007,2.365661,0.0,107 BOULEVARD MASSENA,Paris,75013,E/F,8111.825353882024,557.3792399998993
S47-T3,S47,48.820007,2.365661,1.0,107 BOULEVARD MASSENA,Paris,75013,"T2, E/F, Combo, T3, CHAdeMO",8111.825353882024,557.3792399998993
S48-T1,S48,48.832893,2.363025,1.0,137 BD VINCENT AURIOL,Paris,75013,"T3, E/F, Combo, CHAdeMO, T2",7918.597643732722,1991.8487600000917
S48-T2,S48,48.832893,2.363025,0.0,137 BD VINCENT AURIOL,Paris,75013,E/F,7918.597643732722,1991.8487600000917
S48-T3,S48,48.832893,2.363025,0.0,137 BD VINCENT AURIOL,Paris,75013,"T3, E/F, Combo, CHAdeMO, T2",7918.597643732722,1991.8487600000917
S49-T1,S49,48.831448,2.320052,0.0,47 RUE DIDOT,Paris,75014,"Combo, E/F, T3, CHAdeMO, T2",4768.531487341835,1830.991360000447
S49-T2,S49,48.831448,2.320052,0.0,47 RUE DIDOT,Paris,75014,E/F,4768.531487341835,1830.991360000447
S49-T3,S49,48.831448,2.320052,0.0,47 RUE DIDOT,Paris,75014,"CHAdeMO, Combo, E/F, T3, T2",4768.531487341835,1830.991360000447
S5-T1,S5,48.865501,2.315463,0.0,3 AV DUTUIT,Paris,75008,"T2, T3, CHAdeMO, Combo, E/F",4432.1422757047985,5621.771320000459
S5-T2,S5,48.865501,2.315463,0.0,3 AV DUTUIT,Paris,75008,E/F,4432.1422757047985,5621.771320000459
S5-T3,S5,48.865501,2.315463,1.0,3 AV DUTUIT,Paris,75008,"CHAdeMO, Combo, E/F, T2, T3",4432.1422757047985,5621.771320000459
S50-T1,S50,48.83086,2.325895,0.0,173 AV DU MAINE,Paris,75014,"E/F, Combo, CHAdeMO, T2, T3",5196.843137722122,1765.5352000003938
S50-T2,S50,48.83086,2.325895,1.0,173 AV DU MAINE,Paris,75014,E/F,5196.843137722122,1765.5352000003938
S50-T3,S50,48.83086,2.325895,0.0,173 AV DU MAINE,Paris,75014,"T2, Combo, CHAdeMO, T3, E/F",5196.843137722122,1765.5352000003938
S51-T1,S51,48.841198,2.323891,0.0,9 BD EDGARD QUINET,Paris,75014,"CHAdeMO, T3, Combo, E/F, T2",5049.943163845339,2916.3613600000926
S51-T2,S51,48.841198,2.323891,0.0,9 BD EDGARD QUINET,Paris,75014,E/F,5049.943163845339,2916.3613600000926
S51-T3,S51,48.841198,2.323891,1.0,9 BD EDGARD QUINET,Paris,75014,"T3, Combo, CHAdeMO, E/F, T2",5049.943163845339,2916.3613600000926
S52-T1,S52,48.86154,2.31159,0.0,22 RUE FABERT,Paris,75007,"CHAdeMO, T2, Combo, T3, E/F",4148.23828427525,5180.832800000027
S52-T2,S52,48.86154,2.31159,0.0,22 RUE FABERT,Paris,75007,E/F,4148.23828427525,5180.832800000027
S52-T3,S52,48.86154,2.31159,0.0,22 RUE FABERT,Paris,75007,"T3, T2, E/F, CHAdeMO, Combo",4148.23828427525,5180.832800000027
S53-T1,S53,48.835709,2.286912,1.0,55 RUE DESNOUETTES,Paris,75015,"T3, CHAdeMO, Combo, E/F, T2",2339.257468241609,2305.3258800004055
S53-T2,S53,48.835709,2.286912,0.0,55 RUE DESNOUETTES,Paris,75015,E/F,2339.257468241609,2305.3258800004055
S53-T3,S53,48.835709,2.286912,0.0,55 RUE DESNOUETTES,Paris,75015,"T3, T2, E/F, CHAdeMO, Combo",2339.257468241609,2305.3258800004055
S56-T1,S56,48.828454,2.3006428,0.0,2 Rue Antonin Mercié,Paris,75015,"T3, Combo, E/F, T2, CHAdeMO",3345.7715207902206,1497.69928000033
S56-T2,S56,48.828454,2.3006428,0.0,2 Rue Antonin Mercié,Paris,75015,E/F,3345.7715207902206,1497.69928000033
S56-T3,S56,48.828454,2.3006428,1.0,2 Rue Antonin Mercié,Paris,75015,"E/F, T3, Combo, T2, CHAdeMO",3345.7715207902206,1497.69928000033
S57-T1,S57,48.885689,2.297463,0.0,4 AV GOURGAUD,Paris,75017,"CHAdeMO, T3, T2, Combo, E/F",3112.6814325001023,7869.099480000174
S57-T2,S57,48.885689,2.297463,0.0,4 AV GOURGAUD,Paris,75017,E/F,3112.6814325001023,7869.099480000174
S57-T3,S57,48.885689,2.297463,0.0,4 AV GOURGAUD,Paris,75017,"T2, CHAdeMO, T3, Combo, E/F",3112.6814325001023,7869.099480000174
S58-T1,S58,48.879654,2.302442,0.0,83 RUE DE COURCELLES,Paris,75017,"T3, T2, E/F, CHAdeMO, Combo",3477.658962406566,7197.2832800004935
S58-T2,S58,48.879654,2.302442,0.0,83 RUE DE COURCELLES,Paris,75017,E/F,3477.658962406566,7197.2832800004935
S58-T3,S58,48.879654,2.302442,0.0,83 RUE DE COURCELLES,Paris,75017,"CHAdeMO, T2, Combo, T3, E/F",3477.658962406566,7197.2832800004935
S59-T1,S59,48.883282,2.286938,1.0,2 AV DE LA PORTE DE VILLIERS,Paris,75017,"CHAdeMO, Combo, T3, T2, E/F",2341.163356126244,7601.1522400003905
S59-T2,S59,48.883282,2.286938,0.0,2 AV DE LA PORTE DE VILLIERS,Paris,75017,E/F,2341.163356126244,7601.1522400003905
S59-T3,S59,48.883282,2.286938,1.0,2 AV DE LA PORTE DE VILLIERS,Paris,75017,"E/F, T3, CHAdeMO, Combo, T2",2341.163356126244,7601.1522400003905
S6-T1,S6,48.882794,2.382705,1.0,4 PLACE ARMAND CARREL,Paris,75019,"Combo, T2, CHAdeMO, E/F, T3",9361.20816563655,7546.828079999916
S6-T2,S6,48.882794,2.382705,0.0,4 PLACE ARMAND CARREL,Paris,75019,E/F,9361.20816563655,7546.828079999916
S6-T3,S6,48.882794,2.382705,0.0,4 PLACE ARMAND CARREL,Paris,75019,"E/F, Combo, T2, T3, CHAdeMO",9361.20816563655,7546.828079999916
S60-T1,S60,48.874134,2.405196,0.0,227 AVENUE GAMBETTA,Paris,75020,"T2, Combo, E/F, T3, CHAdeMO",11009.87448922084,6582.796880000027
S60-T2,S60,48.874134,2.405196,0.0,227 AVENUE GAMBETTA,Paris,75020,E/F,11009.87448922084,6582.796880000027
S60-T3,S60,48.874134,2.405196,1.0,227 AVENUE GAMBETTA,Paris,75020,"Combo, E/F, T3, T2, CHAdeMO",11009.87448922084,6582.796880000027
S62-T1,S62,48.880698,2.321369,1.0,72 RUE DE ROME,Paris,75008,"Combo, CHAdeMO, T3, E/F, T2",4865.072039036298,7313.501360000523
S62-T2,S62,48.880698,2.321369,0.0,72 RUE DE ROME,Paris,75008,E/F,4865.072039036298,7313.501360000523
S62-T3,S62,48.880698,2.321369,0.0,72 RUE DE ROME,Paris,75008,"E/F, CHAdeMO, Combo, T2, T3",4865.072039036298,7313.501360000523
S63-T1,S63,48.870628,2.33321,1.0,7 BOULEVARD DES CAPUCINES,Paris,75002,"CHAdeMO, E/F, Combo, T2, T3",5733.057363724462,6192.508960000644
S63-T2,S63,48.870628,2.33321,0.0,7 BOULEVARD DES CAPUCINES,Paris,75002,E/F,5733.057363724462,6192.508960000644
S63-T3,S63,48.870628,2.33321,1.0,7 BOULEVARD DES CAPUCINES,Paris,75002,"E/F, Combo, CHAdeMO, T2, T3",5733.057363724462,6192.508960000644
S64-T1,S64,48.865788,2.342244,0.0,52 RUE ETIENNE MARCEL,Paris,75002,"T2, E/F, Combo, CHAdeMO, T3",6395.280100252887,5653.7201600004755
S64-T2,S64,48.865788,2.342244,0.0,52 RUE ETIENNE MARCEL,Paris,75002,E/F,6395.280100252887,5653.7201600004755
S64-T3,S64,48.865788,2.342244,0.0,52 RUE ETIENNE MARCEL,Paris,75002,"T2, T3, E/F, CHAdeMO, Combo",6395.280100252887,5653.7201600004755
S65-T1,S65,48.84824,2.339865,0.0,11 RUE DE MEDICIS,Paris,75006,"T2, E/F, CHAdeMO, T3, Combo",6220.891358809337,3700.2767999999187
S65-T2,S65,48.84824,2.339865,0.0,11 RUE DE MEDICIS,Paris,75006,E/F,6220.891358809337,3700.2767999999187
S65-T3,S65,48.84824,2.339865,0.0,11 RUE DE MEDICIS,Paris,75006,"Combo, E/F, CHAdeMO, T2, T3",6220.891358809337,3700.2767999999187
S66-T1,S66,48.851025,2.326367,0.0,20 RUE DE SEVRES,Paris,75007,"CHAdeMO, E/F, Combo, T2, T3",5231.442333166143,4010.303000000244
S66-T2,S66,48.851025,2.326367,1.0,20 RUE DE SEVRES,Paris,75007,E/F,5231.442333166143,4010.303000000244
S66-T3,S66,48.851025,2.326367,0.0,20 RUE DE SEVRES,Paris,75007,"CHAdeMO, E/F, T2, Combo, T3",5231.442333166143,4010.303000000244
S67-T1,S67,48.878799,2.368851,0.0,9 PLACE DU COLONEL FABIEN,Paris,75010,"T3, E/F, CHAdeMO, T2, Combo",8345.663136649971,7102.10468000034
S67-T2,S67,48.878799,2.368851,0.0,9 PLACE DU COLONEL FABIEN,Paris,75010,E/F,8345.663136649971,7102.10468000034
S67-T3,S67,48.878799,2.368851,0.0,9 PLACE DU COLONEL FABIEN,Paris,75010,"E/F, T2, Combo, CHAdeMO, T3",8345.663136649971,7102.10468000034
S68-T1,S68,48.875465,2.360103,1.0,150 RUE DU FAUBOURG SAINT MARTIN,Paris,75010,"Combo, CHAdeMO, T3, T2, E/F",7704.4051668525,6730.963800000073
S68-T2,S68,48.875465,2.360103,0.0,150 RUE DU FAUBOURG SAINT MARTIN,Paris,75010,E/F,7704.4051668525,6730.963800000073
S68-T3,S68,48.875465,2.360103,0.0,150 RUE DU FAUBOURG SAINT MARTIN,Paris,75010,"Combo, E/F, T3, CHAdeMO, T2",7704.4051668525,6730.963800000073
S69-T1,S69,48.847446,2.38804,0.0,126 BOULEVARD DIDEROT,Paris,75012,"Combo, CHAdeMO, T3, T2, E/F",9752.281698886396,3611.8887200000217
S69-T2,S69,48.847446,2.38804,0.0,126 BOULEVARD DIDEROT,Paris,75012,E/F,9752.281698886396,3611.8887200000217
S69-T3,S69,48.847446,2.38804,0.0,126 BOULEVARD DIDEROT,Paris,75012,"CHAdeMO, Combo, T2, T3, E/F",9752.281698886396,3611.8887200000217
S7-T1,S7,48.8534452,2.3868802,0.0,206 Boulevard Voltaire,Paris,75011,"E/F, T2, CHAdeMO, T3, Combo",9667.26443855588,4279.719664000589
S7-T2,S7,48.8534452,2.3868802,1.0,206 Boulevard Voltaire,Paris,75011,E/F,9667.26443855588,4279.719664000589
S7-T3,S7,48.8534452,2.3868802,1.0,206 Boulevard Voltaire,Paris,75011,"T3, T2, E/F, CHAdeMO, Combo",9667.26443855588,4279.719664000589
S70-T1,S70,48.834084,2.405248,0.0,3 AVENUE DU GENERAL DODDS,Paris,75012,"Combo, T3, E/F, CHAdeMO, T2",11013.686264990076,2124.430879999937
S70-T2,S70,48.834084,2.405248,0.0,3 AVENUE DU GENERAL DODDS,Paris,75012,E/F,11013.686264990076,2124.430879999937
S70-T3,S70,48.834084,2.405248,1.0,3 AVENUE DU GENERAL DODDS,Paris,75012,"E/F, Combo, CHAdeMO, T2, T3",11013.686264990076,2124.430879999937
S71-T1,S71,48.826504,2.343366,0.0,234 RUE DE TOLBIAC,Paris,75013,"T3, E/F, Combo, CHAdeMO, T2",6477.526492812652,1280.6252800002426
S71-T2,S71,48.826504,2.343366,0.0,234 RUE DE TOLBIAC,Paris,75013,E/F,6477.526492812652,1280.6252800002426
S71-T3,S71,48.826504,2.343366,0.0,234 RUE DE TOLBIAC,Paris,75013,"Combo, T2, E/F, CHAdeMO, T3",6477.526492812652,1280.6252800002426
S72-T1,S72,48.82085,2.343626,0.0,77 RUE DE L'AMIRAL MOUCHEZ,Paris,75013,"Combo, CHAdeMO, T2, T3, E/F",6496.585371658937,651.2220000002619
S72-T2,S72,48.82085,2.343626,0.0,77 RUE DE L'AMIRAL MOUCHEZ,Paris,75013,E/F,6496.585371658937,651.2220000002619
S72-T3,S72,48.82085,2.343626,0.0,77 RUE DE L'AMIRAL MOUCHEZ,Paris,75013,"T3, E/F, Combo, CHAdeMO, T2",6496.585371658937,651.2220000002619
S74-T1,S74,48.834705,2.305529,0.0,25 RUE DE VOUILLE,Paris,75015,"Combo, CHAdeMO, T2, E/F, T3",3703.946497016162,2193.560600000207
S74-T2,S74,48.834705,2.305529,0.0,25 RUE DE VOUILLE,Paris,75015,E/F,3703.946497016162,2193.560600000207
S74-T3,S74,48.834705,2.305529,1.0,25 RUE DE VOUILLE,Paris,75015,"CHAdeMO, T2, E/F, Combo, T3",3703.946497016162,2193.560600000207
S75-T1,S75,48.846214,2.279884,1.0,18 AVENUE EMILE ZOLA,Paris,75015,"CHAdeMO, T2, T3, E/F, Combo",1824.0813123503447,3474.7424800006265
S75-T2,S75,48.846214,2.279884,0.0,18 AVENUE EMILE ZOLA,Paris,75015,E/F,1824.0813123503447,3474.7424800006265
S75-T3,S75,48.846214,2.279884,0.0,18 AVENUE EMILE ZOLA,Paris,75015,"CHAdeMO, E/F, Combo, T2, T3",1824.0813123503447,3474.7424800006265
S76-T1,S76,48.863602,2.27153,0.0,101 AVENUE HENRI MARTIN,Paris,75016,"T3, E/F, T2, Combo, CHAdeMO",1211.7048743429884,5410.374640000276
S76-T2,S76,48.863602,2.27153,1.0,101 AVENUE HENRI MARTIN,Paris,75016,E/F,1211.7048743429884,5410.374640000276
S76-T3,S76,48.863602,2.27153,0.0,101 AVENUE HENRI MARTIN,Paris,75016,"E/F, CHAdeMO, T2, T3, Combo",1211.7048743429884,5410.374640000276
S77-T1,S77,48.837055,2.259932,0.0,4 AVENUE MARCEL DORET,Paris,75016,"T3, E/F, Combo, CHAdeMO, T2",361.5322710381025,2455.1626000001907
S77-T2,S77,48.837055,2.259932,0.0,4 AVENUE MARCEL DORET,Paris,75016,E/F,361.5322710381025,2455.1626000001907
S77-T3,S77,48.837055,2.259932,0.0,4 AVENUE MARCEL DORET,Paris,75016,"T3, Combo, E/F, CHAdeMO, T2",361.5322710381025,2455.1626000001907
S78-T1,S78,48.846653,2.258213,0.0,15 BOULEVARD MURAT,Paris,75016,"T2, T3, E/F, Combo, CHAdeMO",235.52376051205067,3523.611960000635
S78-T2,S78,48.846653,2.258213,0.0,15 BOULEVARD MURAT,Paris,75016,E/F,235.52376051205067,3523.611960000635
S78-T3,S78,48.846653,2.258213,0.0,15 BOULEVARD MURAT,Paris,75016,"E/F, CHAdeMO, T2, Combo, T3",235.52376051205067,3523.611960000635
S79-T1,S79,48.881168,2.313751,0.0,12 BOULEVARD DE COURCELLES,Paris,75017,"E/F, Combo, T3, CHAdeMO, T2",4306.6468888399995,7365.821760000519
S79-T2,S79,48.881168,2.313751,0.0,12 BOULEVARD DE COURCELLES,Paris,75017,E/F,4306.6468888399995,7365.821760000519
S79-T3,S79,48.881168,2.313751,0.0,12 BOULEVARD DE COURCELLES,Paris,75017,"E/F, CHAdeMO, T2, T3, Combo",4306.6468888399995,7365.821760000519
S8-T1,S8,48.8847205,2.3699612,0.0,10 Avenue de Flandre,Paris,75019,"T3, E/F, Combo, CHAdeMO, T2",8427.044549323651,7761.2860600002805
S8-T2,S8,48.8847205,2.3699612,1.0,10 Avenue de Flandre,Paris,75019,E/F,8427.044549323651,7761.2860600002805
S8-T3,S8,48.8847205,2.3699612,0.0,10 Avenue de Flandre,Paris,75019,"Combo, CHAdeMO, T3, E/F, T2",8427.044549323651,7761.2860600002805
S80-T1,S80,48.897671,2.352758,0.0,150 RUE DES POISSONIERS,Paris,75018,"T3, E/F, Combo, CHAdeMO, T2",7165.991839444804,9202.935720000536
S80-T2,S80,48.897671,2.352758,0.0,150 RUE DES POISSONIERS,Paris,75018,E/F,7165.991839444804,9202.935720000536
S80-T3,S80,48.897671,2.352758,0.0,150 RUE DES POISSONIERS,Paris,75018,"E/F, CHAdeMO, T2, T3, Combo",7165.991839444804,9202.935720000536
S81-T1,S81,48.891102,2.327102,0.0,60 AVENUE DE SAINT OUEN,Paris,75018,"T3, Combo, CHAdeMO, T2, E/F",5285.320317597013,8471.674639999865
S81-T2,S81,48.891102,2.327102,0.0,60 AVENUE DE SAINT OUEN,Paris,75018,E/F,5285.320317597013,8471.674639999865
S81-T3,S81,48.891102,2.327102,1.0,60 AVENUE DE SAINT OUEN,Paris,75018,"CHAdeMO, E/F, Combo, T3, T2",5285.320317597013,8471.674639999865
S82-T1,S82,48.889011,2.371768,0.0,39 RUE RIQUET,Paris,75019,"T2, T3, CHAdeMO, Combo, E/F",8559.489096629317,8238.904520000648
S82-T2,S82,48.889011,2.371768,1.0,39 RUE RIQUET,Paris,75019,E/F,8559.489096629317,8238.904520000648
S82-T3,S82,48.889011,2.371768,0.0,39 RUE RIQUET,Paris,75019,"T2, Combo, CHAdeMO, T3, E/F",8559.489096629317,8238.904520000648
S83-T1,S83,48.880421,2.398476,0.0,54 BOULEVARD SERURIER,Paris,75019,"Combo, T2, T3, E/F, CHAdeMO",10517.27577442441,7282.665720000069
S83-T2,S83,48.880421,2.398476,0.0,54 BOULEVARD SERURIER,Paris,75019,E/F,10517.27577442441,7282.665720000069
S83-T3,S83,48.880421,2.398476,0.0,54 BOULEVARD SERURIER,Paris,75019,"E/F, Combo, T3, CHAdeMO, T2",10517.27577442441,7282.665720000069
S84-T1,S84,48.863766,2.41177,0.0,104 RUE LOUIS LUMIERE,Paris,75020,"E/F, Combo, T2, CHAdeMO, T3",11491.770910511277,5428.631120000059
S84-T2,S84,48.863766,2.41177,0.0,104 RUE LOUIS LUMIERE,Paris,75020,E/F,11491.770910511277,5428.631120000059
S84-T3,S84,48.863766,2.41177,0.0,104 RUE LOUIS LUMIERE,Paris,75020,"CHAdeMO, T2, T3, E/F, Combo",11491.770910511277,5428.631120000059
S85-T1,S85,48.872192,2.377671,0.0,6 RUE DE BELLEVILLE,Paris,75020,"T2, E/F, Combo, CHAdeMO, T3",8992.198949820284,6366.613440000064
S85-T2,S85,48.872192,2.377671,0.0,6 RUE DE BELLEVILLE,Paris,75020,E/F,8992.198949820284,6366.613440000064
S85-T3,S85,48.872192,2.377671,0.0,6 RUE DE BELLEVILLE,Paris,75020,"E/F, T2, Combo, CHAdeMO, T3",8992.198949820284,6366.613440000064
S86-T1,S86,48.89061,2.35423,0.0,27 RUE ORDENER,Paris,75018,"CHAdeMO, Combo, T2, T3, E/F",7273.894415066856,8416.905200000514
S86-T2,S86,48.89061,2.35423,1.0,27 RUE ORDENER,Paris,75018,E/F,7273.894415066856,8416.905200000514
S86-T3,S86,48.89061,2.35423,0.0,27 RUE ORDENER,Paris,75018,"T3, Combo, CHAdeMO, E/F, T2",7273.894415066856,8416.905200000514
S87-T1,S87,48.865097,2.36554,0.0,27 BOULEVARD DU TEMPLE,Paris,75003,"E/F, CHAdeMO, T2, Combo, T3",8102.955644880511,5576.798040000105
S87-T2,S87,48.865097,2.36554,1.0,27 BOULEVARD DU TEMPLE,Paris,75003,E/F,8102.955644880511,5576.798040000105
S87-T3,S87,48.865097,2.36554,0.0,27 BOULEVARD DU TEMPLE,Paris,75003,"T3, E/F, Combo, CHAdeMO, T2",8102.955644880511,5576.798040000105
S88-T1,S88,48.82312,2.367798,1.0,118 RUE REGNAULT,Paris,75013,"Combo, CHAdeMO, T2, T3, E/F",8268.474677322514,903.9184000005827
S88-T2,S88,48.82312,2.367798,1.0,118 RUE REGNAULT,Paris,75013,E/F,8268.474677322514,903.9184000005827
S88-T3,S88,48.82312,2.367798,0.0,118 RUE REGNAULT,Paris,75013,"E/F, CHAdeMO, T3, Combo, T2",8268.474677322514,903.9184000005827
S89-T1,S89,48.88842,2.388149,1.0,9 RUE ADOLPHE MILLE,Paris,75019,"T3, E/F, CHAdeMO, Combo, T2",9760.271767325781,8173.114400000647
S89-T2,S89,48.88842,2.388149,1.0,9 RUE ADOLPHE MILLE,Paris,75019,E/F,9760.271767325781,8173.114400000647
S89-T3,S89,48.88842,2.388149,0.0,9 RUE ADOLPHE MILLE,Paris,75019,"E/F, Combo, T2, CHAdeMO, T3",9760.271767325781,8173.114400000647
S9-T1,S9,48.878965,2.293606,1.0,36 AVENUE DES TERNES,Paris,75017,"Combo, CHAdeMO, E/F, T3, T2",2829.9502951534037,7120.583800000351
S9-T2,S9,48.878965,2.293606,0.0,36 AVENUE DES TERNES,Paris,75017,E/F,2829.9502951534037,7120.583800000351
S9-T3,S9,48.878965,2.293606,0.0,36 AVENUE DES TERNES,Paris,75017,"Combo, CHAdeMO, E/F, T3, T2",2829.9502951534037,7120.583800000351
S91-T1,S91,48.857094,2.403802,0.0,127 RUE DES PYRENEES,Paris,75020,"T3, Combo, CHAdeMO, T2, E/F",10907.68957725266,4685.90407999986
S91-T2,S91,48.857094,2.403802,0.0,127 RUE DES PYRENEES,Paris,75020,E/F,10907.68957725266,4685.90407999986
S91-T3,S91,48.857094,2.403802,0.0,127 RUE DES PYRENEES,Paris,75020,"E/F, CHAdeMO, T2, T3, Combo",10907.68957725266,4685.90407999986
S92-T1,S92,48.841663,2.286931,1.0,99 Rue de la Convention,Paris,75015,"E/F, Combo, T2, T3, CHAdeMO",2340.650232464991,2968.1251599999127
S92-T2,S92,48.841663,2.286931,0.0,99 Rue de la Convention,Paris,75015,E/F,2340.650232464991,2968.1251599999127
S92-T3,S92,48.841663,2.286931,0.0,99 Rue de la Convention,Paris,75015,"CHAdeMO, T2, Combo, T3, E/F",2340.650232464991,2968.1251599999127
S93-T1,S93,48.859184,2.273944,0.0,12 Boulevard Emile Augier,Paris,75116,"Combo, CHAdeMO, E/F, T2, T3",1388.659234092802,4918.562880000149
S93-T2,S93,48.859184,2.273944,0.0,12 Boulevard Emile Augier,Paris,75116,E/F,1388.659234092802,4918.562880000149
S93-T3,S93,48.859184,2.273944,0.0,12 Boulevard Emile Augier,Paris,75116,"CHAdeMO, T3, E/F, Combo, T2",1388.659234092802,4918.562880000149
S94-T1,S94,48.833603,2.389173,0.0,54 Rue Baron Leroy,Paris,75013,"CHAdeMO, T3, Combo, T2, E/F",9835.334428628103,2070.885959999868
S94-T2,S94,48.833603,2.389173,0.0,54 Rue Baron Leroy,Paris,75013,E/F,9835.334428628103,2070.885959999868
S94-T3,S94,48.833603,2.389173,0.0,54 Rue Baron Leroy,Paris,75013,"T2, T3, Combo, CHAdeMO, E/F",9835.334428628103,2070.885959999868
S95-T1,S95,48.868511,2.295469,1.0,37 Avenue iena,Paris,75016,"E/F, Combo, CHAdeMO, T2, T3",2966.514492425104,5956.844520000034
S95-T2,S95,48.868511,2.295469,0.0,37 Avenue iena,Paris,75016,E/F,2966.514492425104,5956.844520000034
S95-T3,S95,48.868511,2.295469,0.0,37 Avenue iena,Paris,75016,"CHAdeMO, T2, T3, E/F, Combo",2966.514492425104,5956.844520000034
S96-T1,S96,48.835499,2.34965,0.0,21 Rue Berbier du Mets,Paris,75013,"CHAdeMO, T2, Combo, T3, E/F",6938.164933851449,2281.948680000104
S96-T2,S96,48.835499,2.34965,0.0,21 Rue Berbier du Mets,Paris,75013,E/F,6938.164933851449,2281.948680000104
S96-T3,S96,48.835499,2.34965,0.0,21 Rue Berbier du Mets,Paris,75013,"Combo, T2, E/F, CHAdeMO, T3",6938.164933851449,2281.948680000104
S97-T1,S97,48.839947,2.397822,0.0,5 Rue Docteur Goujon,Paris,75012,"CHAdeMO, Combo, T2, T3, E/F",10469.335363787975,2777.1000400005
S97-T2,S97,48.839947,2.397822,1.0,5 Rue Docteur Goujon,Paris,75012,E/F,10469.335363787975,2777.1000400005
S97-T3,S97,48.839947,2.397822,0.0,5 Rue Docteur Goujon,Paris,75012,"CHAdeMO, T3, Combo, T2, E/F",10469.335363787975,2777.1000400005
S98-T1,S98,48.84998,2.36192,0.0,4 quai Henry IV,Paris,75004,"Combo, T2, T3, E/F, CHAdeMO",7837.597408635994,3893.9736000004955
S98-T2,S98,48.84998,2.36192,0.0,4 quai Henry IV,Paris,75004,E/F,7837.597408635994,3893.9736000004955
S98-T3,S98,48.84998,2.36192,1.0,4 quai Henry IV,Paris,75004,"T2, T3, Combo, E/F, CHAdeMO",7837.597408635994,3893.9736000004955
S99-T1,S99,48.8778,2.39182,0.0,14 rue de Crimée,Paris,75019,"CHAdeMO, T3, E/F, Combo, T2",10029.368475959378,6990.896000000318
S99-T2,S99,48.8778,2.39182,0.0,14 rue de Crimée,Paris,75019,E/F,10029.368475959378,6990.896000000318
S99-T3,S99,48.8778,2.39182,0.0,14 rue de Crimée,Paris,75019,"CHAdeMO, T2, E/F, Combo, T3",10029.368475959378,6990.896000000318
